ONEWEB-0198             
1 48216U 21031G   24094.96606417  .00000269  00000+0  69132-3 0  9996
2 48216  87.8895  89.7617 0001834 103.0427 257.0908 13.14503421142832
ONEWEB-0189             
1 48217U 21031H   24094.75039863  .00000223  00000+0  56809-3 0  9996
2 48217  87.8897  89.7808 0001883 104.7516 255.3822 13.14503039142547
ONEWEB-0196             
1 48218U 21031J   24094.95654525  .00000107  00000+0  25452-3 0  9998
2 48218  87.8895  89.7417 0001826  90.8874 269.2465 13.14504056142571
ONEWEB-0183             
1 48219U 21031K   24094.93116424 -.00000135  00000+0 -39813-3 0  9997
2 48219  87.8898  89.7640 0002039  89.8969 270.2395 13.14504501142662
ONEWEB-0185             
1 48220U 21031L   24094.95734306  .00000147  00000+0  36186-3 0  9997
2 48220  87.8895  89.7318 0002119  92.3250 267.8122 13.14503386142596
ONEWEB-0187             
1 48221U 21031M   24094.54662025 -.00000151  00000+0 -44209-3 0  9993
2 48221  87.8898  89.8454 0002101  90.4334 269.7037 13.14503527142554
ONEWEB-0192             
1 48222U 21031N   24094.90739161  .00000077  00000+0  17230-3 0  9999
2 48222  87.8899  89.7705 0001833  92.6110 267.5230 13.14502366142529
ONEWEB-0219             
1 48223U 21031P   24094.96288234  .00000211  00000+0  53384-3 0  9996
2 48223  87.8897  89.7339 0002081  93.5406 266.5962 13.14501968142725
